GLOBALSTAR M084         
1 38040U 11080A   24171.88741456 -.00000102  00000+0  10606-4 0  9993
2 38040  52.0018  71.4451 0000772  40.2999  38.0051 12.62263550576911
GLOBALSTAR M080         
1 38041U 11080B   24171.94066059 -.00000105  00000+0 -88596-5 0  9998
2 38041  52.0071  72.7616 0000671  18.9085  61.9794 12.62273557577046
GLOBALSTAR M082         
1 38042U 11080C   24171.87339259 -.00000082  00000+0  12294-3 0  9999
2 38042  52.0095  28.3764 0001366  94.2002 339.9199 12.62270501577742
GLOBALSTAR M092         
1 38043U 11080D   24171.63072318 -.00000120  00000+0 -92445-4 0  9995
2 38043  52.0074 119.4697 0000549  35.6026 136.2334 12.62262866576376
GLOBALSTAR M086         
1 38045U 11080F   24171.92847251 -.00000081  00000+0  12470-3 0  9999
2 38045  51.9917  23.0058 0000424 166.7823 278.6671 12.62263512577810
GLOBALSTAR M097         
1 39072U 13005A   24171.54076419 -.00000107  00000+0 -17419-4 0  9996
2 39072  52.0060 298.3696 0000855 134.4290 225.6647 12.62263809525092
GLOBALSTAR M093         
1 39073U 13005B   24171.03905228 -.00000089  00000+0  81022-4 0  9999
2 39073  51.9825 293.7799 0000939 139.2491 220.8446 12.62260436524908
